FENGYUN 1C DEB
1 31855U 99025CJV 22321.07670485  .00023062  00000-0  85224-3 0  9991
2 31855  96.6824  77.7889 0142964  31.7194 329.2557 15.18545288475574
FENGYUN 1C DEB
1 31857U 99025CJX 22348.94333061  .00001273  00000-0  13199-2 0  9995
2 31857  96.2019  43.0740 0327898  70.5905 293.0370 13.55347704467789
DIRECTV 10
1 31862U 07032A   22349.45495703 -.00000082  00000-0  00000-0 0  9990
2 31862   0.0340 166.9471 0000469  56.9601 281.1864  1.00274287 32768
BREEZE-M R/B
1 31864U 07032C   22349.29127106  .00000154  00000-0  00000-0 0  9992
2 31864  20.0250 188.8226 5771567  44.5261 174.4668  2.01218256113376
CBERS 1 DEB
1 31876U 99057QB  22348.79378298  .00014603  00000-0  22912-2 0  9999
2 31876  98.3998   8.6180 0010088  24.9037 335.2654 14.72708870486862
FENGYUN 1C DEB
1 31879U 99025CKE 22348.93861113  .00000662  00000-0  18350-3 0  9998
2 31879  99.6984  64.2565 0224826 313.7118  44.5633 14.37189979474683
FENGYUN 1C DEB
1 31880U 99025CKF 22348.99023778  .00000835  00000-0  71443-3 0  9997
2 31880  99.9806  60.5140 0133944 139.0060 222.1255 13.86138884478099
FENGYUN 1C DEB
1 31882U 99025CKH 22349.03164884  .00000862  00000-0  52302-3 0  9992
2 31882  98.9007 265.4790 0039837  68.6239 291.9175 14.08602749432165
FENGYUN 1C DEB
1 31890U 99025CKR 22347.36258641  .00000255  00000-0  16641-3 0  9992
2 31890  98.7970  12.9621 0074230 101.4247 259.5273 14.09320314487198
FENGYUN 1C DEB
1 31891U 99025CKS 22347.53188191  .00000492  00000-0  55824-3 0  9993
2 31891  99.4921  15.0006 0228470 120.4230 241.9703 13.64423473774657
FENGYUN 1C DEB
1 31892U 99025CKT 22344.99698768  .00001565  00000-0  45671-3 0  9998
2 31892  99.2332  58.2805 0223412 245.4085 112.3672 14.32295580491468
FENGYUN 1C DEB
1 31895U 99025CKW 22348.94114894  .00002036  00000-0  19920-2 0  9994
2 31895  99.1435  54.8083 0243300 222.2330 135.9851 13.67953664773068
FENGYUN 1C DEB
1 31899U 99025CLA 22348.10546362  .00002777  00000-0  24808-2 0  9998
2 31899 102.0734  95.0010 0206848 240.7399 117.2922 13.76510277774579
FENGYUN 1C DEB
1 31901U 99025CLC 22349.34776657  .00000176  00000-0  15447-3 0  9992
2 31901  98.5513  16.0146 0132806 340.3328  19.2739 13.93156382481788
FENGYUN 1C DEB
1 31902U 99025CLD 22345.26625199  .00000364  00000-0  15773-3 0  9995
2 31902  98.4445 352.7596 0187764 105.1724 319.5168 14.20595276491964
FENGYUN 1C DEB
1 31906U 99025CLH 22348.66280059  .00002681  00000-0  15129-2 0  9996
2 31906  98.6493 133.0287 0054730  23.0308 349.9678 14.10322710796356
FENGYUN 1C DEB
1 31910U 99025CLM 22347.60096500  .00003841  00000-0  93888-3 0  9998
2 31910  97.7515  97.8930 0271251 270.4860  86.5254 14.33152371808287
FENGYUN 1C DEB
1 31913U 99025CLQ 22348.58594829  .00007452  00000-0  62939-2 0  9990
2 31913  99.3087 266.8860 0249802 340.5252  18.6483 13.74644181773542
