OBJECT_NAME,OBJECT_ID,EPOCH,MEAN_MOTION,ECCENTRICITY,INCLINATION,RA_OF_ASC_NODE,ARG_OF_PERICENTER,MEAN_ANOMALY,EPHEMERIS_TYPE,CLASSIFICATION_TYPE,NORAD_CAT_ID,ELEMENT_SET_NO,REV_AT_EPOCH,BSTAR,MEAN_MOTION_DOT,MEAN_MOTION_DDOT
FENGYUN 1C DEB,1999-025CJV,2022-11-17T01:50:27.299040,15.18545288,.0142964,96.6824,77.7889,31.7194,329.2557,0,U,31855,999,47557,.85224E-3,.23062E-3,0
FENGYUN 1C DEB,1999-025CJX,2022-12-14T22:38:23.764704,13.55347704,.0327898,96.2019,43.0740,70.5905,293.0370,0,U,31857,999,76711,.13199E-2,.1273E-4,0
DIRECTV 10,2007-032A,2022-12-15T10:55:08.287392,1.00274287,.0000469,0.0340,166.9471,56.9601,281.1864,0,U,31862,999,5657,0,-.82E-6,0
BREEZE-M R/B,2007-032C,2022-12-15T06:59:25.819584,2.01218256,.5771567,20.0250,188.8226,44.5261,174.4668,0,U,31864,999,11350,0,.154E-5,0
CBERS 1 DEB,1999-057QB,2022-12-14T19:03:02.849472,14.72708870,.0010088,98.3998,8.6180,24.9037,335.2654,0,U,31876,999,48686,.22912E-2,.14603E-3,0
FENGYUN 1C DEB,1999-025CKE,2022-12-14T22:31:36.001632,14.37189979,.0224826,99.6984,64.2565,313.7118,44.5633,0,U,31879,999,81192,.1835E-3,.662E-5,0
FENGYUN 1C DEB,1999-025CKF,2022-12-14T23:45:56.544192,13.86138884,.0133944,99.9806,60.5140,139.0060,222.1255,0,U,31880,999,78303,.71443E-3,.835E-5,0
FENGYUN 1C DEB,1999-025CKH,2022-12-15T00:45:34.459776,14.08602749,.0039837,98.9007,265.4790,68.6239,291.9175,0,U,31882,999,79800,.52302E-3,.862E-5,0
FENGYUN 1C DEB,1999-025CKR,2022-12-13T08:42:07.465824,14.09320314,.007423,98.7970,12.9621,101.4247,259.5273,0,U,31890,999,48719,.16641E-3,.255E-5,0
FENGYUN 1C DEB,1999-025CKS,2022-12-13T12:45:54.597024,13.64423473,.022847,99.4921,15.0006,120.4230,241.9703,0,U,31891,999,77465,.55824E-3,.492E-5,0
FENGYUN 1C DEB,1999-025CKT,2022-12-10T23:55:39.735552,14.32295580,.0223412,99.2332,58.2805,245.4085,112.3672,0,U,31892,999,49146,.45671E-3,.1565E-4,0
FENGYUN 1C DEB,1999-025CKW,2022-12-14T22:35:15.268416,13.67953664,.02433,99.1435,54.8083,222.2330,135.9851,0,U,31895,999,77306,.1992E-2,.2036E-4,0
FENGYUN 1C DEB,1999-025CLA,2022-12-14T02:31:52.056768,13.76510277,.0206848,102.0734,95.0010,240.7399,117.2922,0,U,31899,999,77457,.24808E-2,.2777E-4,0
FENGYUN 1C DEB,1999-025CLC,2022-12-15T08:20:47.031648,13.93156382,.0132806,98.5513,16.0146,340.3328,19.2739,0,U,31901,999,79399,.15447E-3,.176E-5,0
FENGYUN 1C DEB,1999-025CLD,2022-12-11T06:23:24.171936,14.20595276,.0187764,98.4445,352.7596,105.1724,319.5168,0,U,31902,999,49196,.15773E-3,.364E-5,0
FENGYUN 1C DEB,1999-025CLH,2022-12-14T15:54:25.970976,14.10322710,.005473,98.6493,133.0287,23.0308,349.9678,0,U,31906,999,79635,.15129E-2,.2681E-4,0
FENGYUN 1C DEB,1999-025CLM,2022-12-13T14:25:23.376000,14.33152371,.0271251,97.7515,97.8930,270.4860,86.5254,0,U,31910,999,80828,.93888E-3,.3841E-4,0
FENGYUN 1C DEB,1999-025CLQ,2022-12-14T14:03:45.932256,13.74644181,.0249802,99.3087,266.8860,340.5252,18.6483,0,U,31913,999,77354,.62939E-2,.7452E-4,0
